[
    {
        "Altitude(m)": 565800.8924809864,
        "Argument of Periapsis(deg)": 0.026491964442854003,
        "Eccentricity": 0.0,
        "Inclination(deg)": 53.0,
        "Latitude(deg)": -38.25663805640928,
        "Longitude(deg)": 15.591724776753987,
        "Mean Anomaly(deg)": -50.542628529689644,
        "RAAN(deg)": 154.96057347411207,
        "Satellite Name": "Starlink Shell 1 698",
        "Satellite Number": 698,
        "Semi-Major Axis(m)": 6931778.249405717,
        "Time(s)": 760
    },
    {
        "Altitude(m)": 565634.1519047583,
        "Argument of Periapsis(deg)": 0.02684054292236524,
        "Eccentricity": 0.0,
        "Inclination(deg)": 53.0,
        "Latitude(deg)": -37.85105118644765,
        "Longitude(deg)": 16.154783898726343,
        "Mean Anomaly(deg)": -49.91579732613298,
        "RAAN(deg)": 154.96005470403458,
        "Satellite Name": "Starlink Shell 1 698",
        "Satellite Number": 698,
        "Semi-Major Axis(m)": 6931778.249405717,
        "Time(s)": 770
    },
    {
        "Altitude(m)": 565466.3754818613,
        "Argument of Periapsis(deg)": 0.027189121401876473,
        "Eccentricity": 0.0,
        "Inclination(deg)": 53.0,
        "Latitude(deg)": -37.44235834411089,
        "Longitude(deg)": 16.71125379731482,
        "Mean Anomaly(deg)": -49.288966122576234,
        "RAAN(deg)": 154.95953593395714,
        "Satellite Name": "Starlink Shell 1 698",
        "Satellite Number": 698,
        "Semi-Major Axis(m)": 6931778.249405717,
        "Time(s)": 780
    },
    {
        "Altitude(m)": 565297.6280608904,
        "Argument of Periapsis(deg)": 0.02753769988138771,
        "Eccentricity": 0.0,
        "Inclination(deg)": 53.0,
        "Latitude(deg)": -37.03063635493463,
        "Longitude(deg)": 17.261254019383493,
        "Mean Anomaly(deg)": -48.662134919019564,
        "RAAN(deg)": 154.95901716387965,
        "Satellite Name": "Starlink Shell 1 698",
        "Satellite Number": 698,
        "Semi-Major Axis(m)": 6931778.249405717,
        "Time(s)": 790
    },
    {
        "Altitude(m)": 565127.9747782339,
        "Argument of Periapsis(deg)": 0.02788627836089895,
        "Eccentricity": 0.0,
        "Inclination(deg)": 53.0,
        "Latitude(deg)": -36.615960361747774,
        "Longitude(deg)": 17.804903518621728,
        "Mean Anomaly(deg)": -48.035303715462796,
        "RAAN(deg)": 154.9584983938022,
        "Satellite Name": "Starlink Shell 1 698",
        "Satellite Number": 698,
        "Semi-Major Axis(m)": 6931778.249405717,
        "Time(s)": 800
    },
    {
        "Altitude(m)": 564957.4810290711,
        "Argument of Periapsis(deg)": 0.02823485684041019,
        "Eccentricity": 0.0,
        "Inclination(deg)": 53.0,
        "Latitude(deg)": -36.198403851244464,
        "Longitude(deg)": 18.34232101971015,
        "Mean Anomaly(deg)": -47.40847251190606,
        "RAAN(deg)": 154.9579796237247,
        "Satellite Name": "Starlink Shell 1 698",
        "Satellite Number": 698,
        "Semi-Major Axis(m)": 6931778.249405717,
        "Time(s)": 810
    },
    {
        "Altitude(m)": 564786.2124382624,
        "Argument of Periapsis(deg)": 0.028583435319921423,
        "Eccentricity": 0.0,
        "Inclination(deg)": 53.0,
        "Latitude(deg)": -35.77803868177716,
        "Longitude(deg)": 18.873625394013384,
        "Mean Anomaly(deg)": -46.78164130834937,
        "RAAN(deg)": 154.95746085364723,
        "Satellite Name": "Starlink Shell 1 698",
        "Satellite Number": 698,
        "Semi-Major Axis(m)": 6931778.249405717,
        "Time(s)": 820
    },
    {
        "Altitude(m)": 564614.2348310809,
        "Argument of Periapsis(deg)": 0.028932013799432665,
        "Eccentricity": 0.0,
        "Inclination(deg)": 53.0,
        "Latitude(deg)": -35.35493511220128,
        "Longitude(deg)": 19.398934533341098,
        "Mean Anomaly(deg)": -46.154810104792624,
        "RAAN(deg)": 154.95694208356974,
        "Satellite Name": "Starlink Shell 1 698",
        "Satellite Number": 698,
        "Semi-Major Axis(m)": 6931778.249405717,
        "Time(s)": 830
    },
    {
        "Altitude(m)": 564441.6142038724,
        "Argument of Periapsis(deg)": 0.029280592278943897,
        "Eccentricity": 0.0,
        "Inclination(deg)": 53.0,
        "Latitude(deg)": -34.9291618316065,
        "Longitude(deg)": 19.918365746943923,
        "Mean Anomaly(deg)": -45.52797890123598,
        "RAAN(deg)": 154.9564233134923,
        "Satellite Name": "Starlink Shell 1 698",
        "Satellite Number": 698,
        "Semi-Major Axis(m)": 6931778.249405717,
        "Time(s)": 840
    },
    {
        "Altitude(m)": 564268.4166946064,
        "Argument of Periapsis(deg)": 0.029629170758455132,
        "Eccentricity": 0.0,
        "Inclination(deg)": 53.0,
        "Latitude(deg)": -34.50078598978802,
        "Longitude(deg)": 20.43203616831047,
        "Mean Anomaly(deg)": -44.9011476976792,
        "RAAN(deg)": 154.95590454341482,
        "Satellite Name": "Starlink Shell 1 698",
        "Satellite Number": 698,
        "Semi-Major Axis(m)": 6931778.249405717,
        "Time(s)": 850
    },
    {
        "Altitude(m)": 564094.7085533544,
        "Argument of Periapsis(deg)": 0.02997774923796637,
        "Eccentricity": 0.0,
        "Inclination(deg)": 53.0,
        "Latitude(deg)": -34.069873228326706,
        "Longitude(deg)": 20.94006149024298,
        "Mean Anomaly(deg)": -44.27431649412245,
        "RAAN(deg)": 154.95538577333735,
        "Satellite Name": "Starlink Shell 1 698",
        "Satellite Number": 698,
        "Semi-Major Axis(m)": 6931778.249405717,
        "Time(s)": 860
    },
    {
        "Altitude(m)": 563920.5561126962,
        "Argument of Periapsis(deg)": 0.030326327717477602,
        "Eccentricity": 0.0,
        "Inclination(deg)": 53.0,
        "Latitude(deg)": -33.636487712143406,
        "Longitude(deg)": 21.442557230105912,
        "Mean Anomaly(deg)": -43.64748529056579,
        "RAAN(deg)": 154.95486700325986,
        "Satellite Name": "Starlink Shell 1 698",
        "Satellite Number": 698,
        "Semi-Major Axis(m)": 6931778.249405717,
        "Time(s)": 870
    },
    {
        "Altitude(m)": 563746.0257580912,
        "Argument of Periapsis(deg)": 0.030674906196988847,
        "Eccentricity": 0.0,
        "Inclination(deg)": 53.0,
        "Latitude(deg)": -33.200692161422104,
        "Longitude(deg)": 21.939637481820796,
        "Mean Anomaly(deg)": -43.02065408700902,
        "RAAN(deg)": 154.9543482331824,
        "Satellite Name": "Starlink Shell 1 698",
        "Satellite Number": 698,
        "Semi-Major Axis(m)": 6931778.249405717,
        "Time(s)": 880
    },
    {
        "Altitude(m)": 563571.1838981911,
        "Argument of Periapsis(deg)": 0.031023484676500086,
        "Eccentricity": 0.0,
        "Inclination(deg)": 53.0,
        "Latitude(deg)": -32.76254788379088,
        "Longitude(deg)": 22.43141535653365,
        "Mean Anomaly(deg)": -42.393822883452366,
        "RAAN(deg)": 154.9538294631049,
        "Satellite Name": "Starlink Shell 1 698",
        "Satellite Number": 698,
        "Semi-Major Axis(m)": 6931778.249405717,
        "Time(s)": 890
    },
    {
        "Altitude(m)": 563396.096935158,
        "Argument of Periapsis(deg)": 0.03137206315601132,
        "Eccentricity": 0.0,
        "Inclination(deg)": 53.0,
        "Latitude(deg)": -32.32211480666516,
        "Longitude(deg)": 22.918003430509348,
        "Mean Anomaly(deg)": -41.76699167989562,
        "RAAN(deg)": 154.95331069302748,
        "Satellite Name": "Starlink Shell 1 698",
        "Satellite Number": 698,
        "Semi-Major Axis(m)": 6931778.249405717,
        "Time(s)": 900
    },
    {
        "Altitude(m)": 563220.8312349312,
        "Argument of Periapsis(deg)": 0.03172064163552255,
        "Eccentricity": 0.0,
        "Inclination(deg)": 53.0,
        "Latitude(deg)": -31.879451509671902,
        "Longitude(deg)": 23.399512686917873,
        "Mean Anomaly(deg)": -41.14016047633895,
        "RAAN(deg)": 154.95279192294998,
        "Satellite Name": "Starlink Shell 1 698",
        "Satellite Number": 698,
        "Semi-Major Axis(m)": 6931778.249405717,
        "Time(s)": 910
    },
    {
        "Altitude(m)": 563045.4530975539,
        "Argument of Periapsis(deg)": 0.0320692201150338,
        "Eccentricity": 0.0,
        "Inclination(deg)": 53.0,
        "Latitude(deg)": -31.434615257068124,
        "Longitude(deg)": 23.876052976822177,
        "Mean Anomaly(deg)": -40.51332927278219,
        "RAAN(deg)": 154.95227315287252,
        "Satellite Name": "Starlink Shell 1 698",
        "Satellite Number": 698,
        "Semi-Major Axis(m)": 6931778.249405717,
        "Time(s)": 920
    },
    {
        "Altitude(m)": 562870.0287274598,
        "Argument of Periapsis(deg)": 0.032417798594545036,
        "Eccentricity": 0.0,
        "Inclination(deg)": 53.0,
        "Latitude(deg)": -30.987662030087076,
        "Longitude(deg)": 24.347733486072382,
        "Mean Anomaly(deg)": -39.886498069225546,
        "RAAN(deg)": 154.95175438279503,
        "Satellite Name": "Starlink Shell 1 698",
        "Satellite Number": 698,
        "Semi-Major Axis(m)": 6931778.249405717,
        "Time(s)": 930
    },
    {
        "Altitude(m)": 562694.6242038433,
        "Argument of Periapsis(deg)": 0.03276637707405627,
        "Eccentricity": 0.0,
        "Inclination(deg)": 53.0,
        "Latitude(deg)": -30.53864655914941,
        "Longitude(deg)": 24.81466169483626,
        "Mean Anomaly(deg)": -39.25966686566877,
        "RAAN(deg)": 154.95123561271754,
        "Satellite Name": "Starlink Shell 1 698",
        "Satellite Number": 698,
        "Semi-Major Axis(m)": 6931778.249405717,
        "Time(s)": 940
    }
]